{
  "type": "FeatureCollection",
  "features": [
    {
      "type": "Feature",
      "properties": {
        "norad_id": 35646,
        "name": "COSMOS 2251 DEB",
        "group": "cosmos-2251-debris",
        "lat": -58.42854936395421,
        "lon": -92.97177229690907,
        "alt_km": 998.8907348583907,
        "timestamp": "2025-12-10T21:43:22.487483+00:00",
        "meta_object_name": "COSMOS 2251 DEB",
        "meta_object_id": "1993-036ANM",
        "meta_epoch": "2025-12-09T21:53:18.178080",
        "meta_mean_motion": 13.40813356,
        "meta_eccentricity": 0.04571798,
        "meta_inclination": 73.8723,
        "meta_ra_of_asc_node": 60.5155,
        "meta_arg_of_pericenter": 171.162,
        "meta_mean_anomaly": 314.4058,
        "meta_ephemeris_type": 0,
        "meta_classification_type": "U",
        "meta_norad_cat_id": 35646,
        "meta_element_set_no": 999,
        "meta_rev_at_epoch": 81820,
        "meta_bstar": 0.0013446528,
        "meta_mean_motion_dot": 1.351e-05,
        "meta_mean_motion_ddot": 0,
        "tle_line1": "1 35646U 93036ANM 25343.91201595  .00001351  00000+0  13447-2 0  9994",
        "tle_line2": "2 35646  73.8723  60.5155 0457179 171.1620 314.4058 13.40813356818207"
      },
      "geometry": {
        "type": "Point",
        "coordinates": [
          -92.97177229690907,
          -58.42854936395421
        ]
      }
    },
    {
      "type": "Feature",
      "properties": {
        "norad_id": 35647,
        "name": "COSMOS 2251 DEB",
        "group": "cosmos-2251-debris",
        "lat": 62.54744943372151,
        "lon": -28.553590000905466,
        "alt_km": 711.9885438912142,
        "timestamp": "2025-12-10T21:43:22.487493+00:00",
        "meta_object_name": "COSMOS 2251 DEB",
        "meta_object_id": "1993-036ANN",
        "meta_epoch": "2025-12-10T14:45:43.131456",
        "meta_mean_motion": 14.43615239,
        "meta_eccentricity": 0.00454963,
        "meta_inclination": 74.0232,
        "meta_ra_of_asc_node": 298.5182,
        "meta_arg_of_pericenter": 38.1034,
        "meta_mean_anomaly": 322.3325,
        "meta_ephemeris_type": 0,
        "meta_classification_type": "U",
        "meta_norad_cat_id": 35647,
        "meta_element_set_no": 999,
        "meta_rev_at_epoch": 67633,
        "meta_bstar": 0.0013749873,
        "meta_mean_motion_dot": 4.698e-05,
        "meta_mean_motion_ddot": 0,
        "tle_line1": "1 35647U 93036ANN 25344.61508254  .00004698  00000+0  13750-2 0  9999",
        "tle_line2": "2 35647  74.0232 298.5182 0045496  38.1034 322.3325 14.43615239676330"
      },
      "geometry": {
        "type": "Point",
        "coordinates": [
          -28.553590000905466,
          62.54744943372151
        ]
      }
    },
    {
      "type": "Feature",
      "properties": {
        "norad_id": 35650,
        "name": "COSMOS 2251 DEB",
        "group": "cosmos-2251-debris",
        "lat": -23.998617402911226,
        "lon": 15.191557345215534,
        "alt_km": 624.4128762092205,
        "timestamp": "2025-12-10T21:43:22.487503+00:00",
        "meta_object_name": "COSMOS 2251 DEB",
        "meta_object_id": "1993-036ANR",
        "meta_epoch": "2025-12-10T04:17:14.504640",
        "meta_mean_motion": 14.83512413,
        "meta_eccentricity": 0.00145256,
        "meta_inclination": 74.0455,
        "meta_ra_of_asc_node": 23.9462,
        "meta_arg_of_pericenter": 72.7174,
        "meta_mean_anomaly": 344.2504,
        "meta_ephemeris_type": 0,
        "meta_classification_type": "U",
        "meta_norad_cat_id": 35650,
        "meta_element_set_no": 999,
        "meta_rev_at_epoch": 87596,
        "meta_bstar": 0.0022559243,
        "meta_mean_motion_dot": 0.00018615,
        "meta_mean_motion_ddot": 0,
        "tle_line1": "1 35650U 93036ANR 25344.17864010  .00018615  00000+0  22559-2 0  9990",
        "tle_line2": "2 35650  74.0455  23.9462 0014525  72.7174 344.2504 14.83512413875966"
      },
      "geometry": {
        "type": "Point",
        "coordinates": [
          15.191557345215534,
          -23.998617402911226
        ]
      }
    },
    {
      "type": "Feature",
      "properties": {
        "norad_id": 35660,
        "name": "COSMOS 2251 DEB",
        "group": "cosmos-2251-debris",
        "lat": 43.41335382396668,
        "lon": -59.03431528702424,
        "alt_km": 733.5594917769577,
        "timestamp": "2025-12-10T21:43:22.487514+00:00",
        "meta_object_name": "COSMOS 2251 DEB",
        "meta_object_id": "1993-036APB",
        "meta_epoch": "2025-12-10T03:25:35.080032",
        "meta_mean_motion": 14.49912866,
        "meta_eccentricity": 0.00186346,
        "meta_inclination": 74.0397,
        "meta_ra_of_asc_node": 138.1054,
        "meta_arg_of_pericenter": 287.2761,
        "meta_mean_anomaly": 189.4863,
        "meta_ephemeris_type": 0,
        "meta_classification_type": "U",
        "meta_norad_cat_id": 35660,
        "meta_element_set_no": 999,
        "meta_rev_at_epoch": 65833,
        "meta_bstar": 0.00068790313,
        "meta_mean_motion_dot": 2.638e-05,
        "meta_mean_motion_ddot": 0,
        "tle_line1": "1 35660U 93036APB 25344.14276713  .00002638  00000+0  68790-3 0  9991",
        "tle_line2": "2 35660  74.0397 138.1054 0018634 287.2761 189.4863 14.49912866658333"
      },
      "geometry": {
        "type": "Point",
        "coordinates": [
          -59.03431528702424,
          43.41335382396668
        ]
      }
    },
    {
      "type": "Feature",
      "properties": {
        "norad_id": 35661,
        "name": "COSMOS 2251 DEB",
        "group": "cosmos-2251-debris",
        "lat": -65.1254579787795,
        "lon": -58.41786958424321,
        "alt_km": 586.8637174648948,
        "timestamp": "2025-12-10T21:43:22.487524+00:00",
        "meta_object_name": "COSMOS 2251 DEB",
        "meta_object_id": "1993-036APC",
        "meta_epoch": "2025-12-09T17:08:36.134304",
        "meta_mean_motion": 14.86479367,
        "meta_eccentricity": 0.00883269,
        "meta_inclination": 74.0134,
        "meta_ra_of_asc_node": 85.7599,
        "meta_arg_of_pericenter": 190.7537,
        "meta_mean_anomaly": 169.1759,
        "meta_ephemeris_type": 0,
        "meta_classification_type": "U",
        "meta_norad_cat_id": 35661,
        "meta_element_set_no": 999,
        "meta_rev_at_epoch": 87823,
        "meta_bstar": 0.0014984263,
        "meta_mean_motion_dot": 0.00014219,
        "meta_mean_motion_ddot": 0,
        "tle_line1": "1 35661U 93036APC 25343.71430711  .00014219  00000+0  14984-2 0  9997",
        "tle_line2": "2 35661  74.0134  85.7599 0088326 190.7537 169.1759 14.86479367878235"
      },
      "geometry": {
        "type": "Point",
        "coordinates": [
          -58.41786958424321,
          -65.1254579787795
        ]
      }
    },
    {
      "type": "Feature",
      "properties": {
        "norad_id": 35663,
        "name": "COSMOS 2251 DEB",
        "group": "cosmos-2251-debris",
        "lat": -73.92517174329751,
        "lon": 44.14772440779925,
        "alt_km": 681.0223495647388,
        "timestamp": "2025-12-10T21:43:22.487533+00:00",
        "meta_object_name": "COSMOS 2251 DEB",
        "meta_object_id": "1993-036APE",
        "meta_epoch": "2025-11-30T11:26:45.384288",
        "meta_mean_motion": 14.65332391,
        "meta_eccentricity": 0.00074535,
        "meta_inclination": 74.0171,
        "meta_ra_of_asc_node": 148.2949,
        "meta_arg_of_pericenter": 219.2944,
        "meta_mean_anomaly": 140.7685,
        "meta_ephemeris_type": 0,
        "meta_classification_type": "U",
        "meta_norad_cat_id": 35663,
        "meta_element_set_no": 999,
        "meta_rev_at_epoch": 73202,
        "meta_bstar": 0.0015821861,
        "meta_mean_motion_dot": 8.525e-05,
        "meta_mean_motion_ddot": 0,
        "tle_line1": "1 35663U 93036APE 25334.47691417  .00008525  00000+0  15822-2 0  9999",
        "tle_line2": "2 35663  74.0171 148.2949 0007453 219.2944 140.7685 14.65332391732024"
      },
      "geometry": {
        "type": "Point",
        "coordinates": [
          44.14772440779925,
          -73.92517174329751
        ]
      }
    },
    {
      "type": "Feature",
      "properties": {
        "norad_id": 35667,
        "name": "COSMOS 2251 DEB",
        "group": "cosmos-2251-debris",
        "lat": -1.1148705121830036,
        "lon": 143.28566389481415,
        "alt_km": 708.749941651773,
        "timestamp": "2025-12-10T21:43:22.487544+00:00",
        "meta_object_name": "COSMOS 2251 DEB",
        "meta_object_id": "1993-036APJ",
        "meta_epoch": "2025-12-09T17:46:15.756096",
        "meta_mean_motion": 14.59967906,
        "meta_eccentricity": 0.00199761,
        "meta_inclination": 74.0551,
        "meta_ra_of_asc_node": 145.8232,
        "meta_arg_of_pericenter": 206.9301,
        "meta_mean_anomaly": 153.083,
        "meta_ephemeris_type": 0,
        "meta_classification_type": "U",
        "meta_norad_cat_id": 35667,
        "meta_element_set_no": 999,
        "meta_rev_at_epoch": 70759,
        "meta_bstar": 0.0017390315,
        "meta_mean_motion_dot": 8.344e-05,
        "meta_mean_motion_ddot": 0,
        "tle_line1": "1 35667U 93036APJ 25343.74046014  .00008344  00000+0  17390-2 0  9991",
        "tle_line2": "2 35667  74.0551 145.8232 0019976 206.9301 153.0830 14.59967906707593"
      },
      "geometry": {
        "type": "Point",
        "coordinates": [
          143.28566389481415,
          -1.1148705121830036
        ]
      }
    }
  ]
}